ATLAS CENTAUR 2         
1 00694U 63047A   26062.82047802  .00001791  00000+0  20895-3 0  9990
2 00694  30.3522 228.4444 0547810  28.5612 334.3898 14.12046989130795
THOR AGENA D R/B        
1 00733U 64002A   26062.66118847  .00000300  00000+0  12440-3 0  9998
2 00733  99.1227  75.6701 0031916 276.1434  83.6113 14.34015993237438
SL-3 R/B                
1 00877U 64053B   26062.19064679  .00000476  00000+0  11620-3 0  9997
2 00877  65.0788 350.2898 0079469 294.2851  64.9963 14.61361057265845
SL-8 R/B                
1 02802U 67045B   26062.83124801  .00000594  00000+0  17182-3 0  9996
2 02802  74.0136 359.0287 0063948   6.6887 353.5109 14.45615996 88174
SL-8 R/B                
1 03230U 68040B   26062.85312574  .00004543  00000+0  33658-3 0  9990
2 03230  74.0330 325.6196 0024163 151.3681 208.8840 15.03208526 89133
OAO 2                   
1 03597U 68110A   26062.91913461  .00000387  00000+0  10951-3 0  9996
2 03597  34.9935 297.4427 0005251 158.9381 201.1526 14.47303945 18266
ISIS 1                  
1 03669U 69009A   26062.78996641  .00000238  00000+0  15275-3 0  9999
2 03669  88.4548 155.9518 1707825 101.0636 278.6409 11.30412171347869
SERT 2                  
1 04327U 70009A   26062.80624749  .00000010  00000+0  70171-4 0  9998
2 04327  99.2752   6.2220 0004817 170.1085 244.4876 13.58729269779095
SL-3 R/B                
1 05118U 71028B   26062.95060438  .00053200  00000+0  63840-3 0  9997
2 05118  81.2335  59.1148 0014077 310.3168  49.6853 15.60562425987777
ASTEX 1                 
1 05560U 71089A   26062.82157801  .00000687  00000+0  17462-3 0  9992
2 05560  92.7130 149.8622 0017843 103.1674 257.1524 14.50762632861453
SL-8 R/B                
1 05730U 71119B   26062.88207709  .00016424  00000+0  85297-3 0  9991
2 05730  73.8877 186.5709 0549869 154.4125 208.5383 14.37673240654658
OAO 3 (COPERNICUS)      
1 06153U 72065A   26062.85426685  .00000547  00000+0  11663-3 0  9990
2 06153  35.0067 330.5623 0005985 116.3653 302.0620 14.59992498845349
ATLAS CENTAUR R/B       
1 06155U 72065B   26062.88268927  .00001907  00000+0  26265-3 0  9993
2 06155  35.0028 339.7842 0034175 320.2365  39.5833 14.77668887840403
SL-8 R/B                
1 08459U 75112B   26062.38185596  .00000283  00000+0  10160-3 0  9996
2 08459  74.0616  30.5149 0014570 126.3445 233.9057 14.38199162630963
SL-3 R/B                
1 10114U 77057B   26062.89145324  .00017644  00000+0  37182-3 0  9990
2 10114  97.5759 234.5583 0006396 309.3757  50.6925 15.45297147667437
SEASAT 1                
1 10967U 78064A   26062.82398425  .00000342  00000+0  13396-3 0  9998
2 10967 108.0123 113.1911 0002174 287.8820  72.2088 14.46155133505668
SL-14 R/B               
1 11267U 79011B   26062.61124641  .00000753  00000+0  71785-4 0  9992
2 11267  82.5215 102.3401 0017599  79.1522 281.1677 14.91899894527873
