[{"OBJECT_NAME":"ATLAS CENTAUR 2","OBJECT_ID":"1963-047A","EPOCH":"2026-03-03T19:41:29.300928","MEAN_MOTION":14.12046989,"ECCENTRICITY":0.054781,"INCLINATION":30.3522,"RA_OF_ASC_NODE":228.4444,"ARG_OF_PERICENTER":28.5612,"MEAN_ANOMALY":334.3898,"EPHEMERIS_TYPE":0,"CLASSIFICATION_TYPE":"U","NORAD_CAT_ID":694,"ELEMENT_SET_NO":999,"REV_AT_EPOCH":13079,"BSTAR":0.00020894741,"MEAN_MOTION_DOT":1.791e-5,"MEAN_MOTION_DDOT":0},{"OBJECT_NAME":"THOR AGENA D R/B","OBJECT_ID":"1964-002A","EPOCH":"2026-03-03T15:52:06.683808","MEAN_MOTION":14.34015993,"ECCENTRICITY":0.00319168,"INCLINATION":99.1227,"RA_OF_ASC_NODE":75.6701,"ARG_OF_PERICENTER":276.1434,"MEAN_ANOMALY":83.6113,"EPHEMERIS_TYPE":0,"CLASSIFICATION_TYPE":"U","NORAD_CAT_ID":733,"ELEMENT_SET_NO":999,"REV_AT_EPOCH":23743,"BSTAR":0.00012440446,"MEAN_MOTION_DOT":3.0e-6,"MEAN_MOTION_DDOT":0},{"OBJECT_NAME":"SL-3 R/B","OBJECT_ID":"1964-053B","EPOCH":"2026-03-03T04:34:31.882656","MEAN_MOTION":14.61361057,"ECCENTRICITY":0.00794699,"INCLINATION":65.0788,"RA_OF_ASC_NODE":350.2898,"ARG_OF_PERICENTER":294.2851,"MEAN_ANOMALY":64.9963,"EPHEMERIS_TYPE":0,"CLASSIFICATION_TYPE":"U","NORAD_CAT_ID":877,"ELEMENT_SET_NO":999,"REV_AT_EPOCH":26584,"BSTAR":0.00011619696,"MEAN_MOTION_DOT":4.76e-6,"MEAN_MOTION_DDOT":0},{"OBJECT_NAME":"SL-8 R/B","OBJECT_ID":"1967-045B","EPOCH":"2026-03-03T19:56:59.828064","MEAN_MOTION":14.45615996,"ECCENTRICITY":0.00639481,"INCLINATION":74.0136,"RA_OF_ASC_NODE":359.0287,"ARG_OF_PERICENTER":6.6887,"MEAN_ANOMALY":353.5109,"EPHEMERIS_TYPE":0,"CLASSIFICATION_TYPE":"U","NORAD_CAT_ID":2802,"ELEMENT_SET_NO":999,"REV_AT_EPOCH":8817,"BSTAR":0.00017182038,"MEAN_MOTION_DOT":5.94e-6,"MEAN_MOTION_DDOT":0},{"OBJECT_NAME":"SL-8 R/B","OBJECT_ID":"1968-040B","EPOCH":"2026-03-03T20:28:30.063936","MEAN_MOTION":15.03208526,"ECCENTRICITY":0.00241638,"INCLINATION":74.033,"RA_OF_ASC_NODE":325.6196,"ARG_OF_PERICENTER":151.3681,"MEAN_ANOMALY":208.884,"EPHEMERIS_TYPE":0,"CLASSIFICATION_TYPE":"U","NORAD_CAT_ID":3230,"ELEMENT_SET_NO":999,"REV_AT_EPOCH":8913,"BSTAR":0.00033657833,"MEAN_MOTION_DOT":4.543e-5,"MEAN_MOTION_DDOT":0},{"OBJECT_NAME":"OAO 2","OBJECT_ID":"1968-110A","EPOCH":"2026-03-03T22:03:33.230304","MEAN_MOTION":14.47303945,"ECCENTRICITY":0.00052517,"INCLINATION":34.9935,"RA_OF_ASC_NODE":297.4427,"ARG_OF_PERICENTER":158.9381,"MEAN_ANOMALY":201.1526,"EPHEMERIS_TYPE":0,"CLASSIFICATION_TYPE":"U","NORAD_CAT_ID":3597,"ELEMENT_SET_NO":999,"REV_AT_EPOCH":1826,"BSTAR":0.00010951372,"MEAN_MOTION_DOT":3.87e-6,"MEAN_MOTION_DDOT":0},{"OBJECT_NAME":"ISIS 1","OBJECT_ID":"1969-009A","EPOCH":"2026-03-03T18:57:33.097824","MEAN_MOTION":11.30412171,"ECCENTRICITY":0.17078259,"INCLINATION":88.4548,"RA_OF_ASC_NODE":155.9518,"ARG_OF_PERICENTER":101.0636,"MEAN_ANOMALY":278.6409,"EPHEMERIS_TYPE":0,"CLASSIFICATION_TYPE":"U","NORAD_CAT_ID":3669,"ELEMENT_SET_NO":999,"REV_AT_EPOCH":34786,"BSTAR":0.00015275454,"MEAN_MOTION_DOT":2.38e-6,"MEAN_MOTION_DDOT":0},{"OBJECT_NAME":"SERT 2","OBJECT_ID":"1970-009A","EPOCH":"2026-03-03T19:20:59.783136","MEAN_MOTION":13.58729269,"ECCENTRICITY":0.00048177,"INCLINATION":99.2752,"RA_OF_ASC_NODE":6.222,"ARG_OF_PERICENTER":170.1085,"MEAN_ANOMALY":244.4876,"EPHEMERIS_TYPE":0,"CLASSIFICATION_TYPE":"U","NORAD_CAT_ID":4327,"ELEMENT_SET_NO":999,"REV_AT_EPOCH":77909,"BSTAR":7.0170619e-5,"MEAN_MOTION_DOT":1.0e-7,"MEAN_MOTION_DDOT":0},{"OBJECT_NAME":"SL-3 R/B","OBJECT_ID":"1971-028B","EPOCH":"2026-03-03T22:48:52.218432","MEAN_MOTION":15.60562425,"ECCENTRICITY":0.00140779,"INCLINATION":81.2335,"RA_OF_ASC_NODE":59.1148,"ARG_OF_PERICENTER":310.3168,"MEAN_ANOMALY":49.6853,"EPHEMERIS_TYPE":0,"CLASSIFICATION_TYPE":"U","NORAD_CAT_ID":5118,"ELEMENT_SET_NO":999,"REV_AT_EPOCH":98777,"BSTAR":0.00063840222,"MEAN_MOTION_DOT":0.000532,"MEAN_MOTION_DDOT":0},{"OBJECT_NAME":"ASTEX 1","OBJECT_ID":"1971-089A","EPOCH":"2026-03-03T19:43:04.340064","MEAN_MOTION":14.50762632,"ECCENTRICITY":0.0017843,"INCLINATION":92.713,"RA_OF_ASC_NODE":149.8622,"ARG_OF_PERICENTER":103.1674,"MEAN_ANOMALY":257.1524,"EPHEMERIS_TYPE":0,"CLASSIFICATION_TYPE":"U","NORAD_CAT_ID":5560,"ELEMENT_SET_NO":999,"REV_AT_EPOCH":86145,"BSTAR":0.00017461567,"MEAN_MOTION_DOT":6.87e-6,"MEAN_MOTION_DDOT":0},{"OBJECT_NAME":"SL-8 R/B","OBJECT_ID":"1971-119B","EPOCH":"2026-03-03T21:10:11.460576","MEAN_MOTION":14.3767324,"ECCENTRICITY":0.05498693,"INCLINATION":73.8877,"RA_OF_ASC_NODE":186.5709,"ARG_OF_PERICENTER":154.4125,"MEAN_ANOMALY":208.5383,"EPHEMERIS_TYPE":0,"CLASSIFICATION_TYPE":"U","NORAD_CAT_ID":5730,"ELEMENT_SET_NO":999,"REV_AT_EPOCH":65465,"BSTAR":0.00085297203,"MEAN_MOTION_DOT":0.00016424,"MEAN_MOTION_DDOT":0},{"OBJECT_NAME":"OAO 3 (COPERNICUS)","OBJECT_ID":"1972-065A","EPOCH":"2026-03-03T20:30:08.655840","MEAN_MOTION":14.59992498,"ECCENTRICITY":0.00059854,"INCLINATION":35.0067,"RA_OF_ASC_NODE":330.5623,"ARG_OF_PERICENTER":116.3653,"MEAN_ANOMALY":302.062,"EPHEMERIS_TYPE":0,"CLASSIFICATION_TYPE":"U","NORAD_CAT_ID":6153,"ELEMENT_SET_NO":999,"REV_AT_EPOCH":84534,"BSTAR":0.00011663471,"MEAN_MOTION_DOT":5.47e-6,"MEAN_MOTION_DDOT":0},{"OBJECT_NAME":"ATLAS CENTAUR R/B","OBJECT_ID":"1972-065B","EPOCH":"2026-03-03T21:11:04.352928","MEAN_MOTION":14.77668887,"ECCENTRICITY":0.00341757,"INCLINATION":35.0028,"RA_OF_ASC_NODE":339.7842,"ARG_OF_PERICENTER":320.2365,"MEAN_ANOMALY":39.5833,"EPHEMERIS_TYPE":0,"CLASSIFICATION_TYPE":"U","NORAD_CAT_ID":6155,"ELEMENT_SET_NO":999,"REV_AT_EPOCH":84040,"BSTAR":0.00026264989,"MEAN_MOTION_DOT":1.907e-5,"MEAN_MOTION_DDOT":0},{"OBJECT_NAME":"SL-8 R/B","OBJECT_ID":"1975-112B","EPOCH":"2026-03-03T09:09:52.354944","MEAN_MOTION":14.38199162,"ECCENTRICITY":0.00145706,"INCLINATION":74.0616,"RA_OF_ASC_NODE":30.5149,"ARG_OF_PERICENTER":126.3445,"MEAN_ANOMALY":233.9057,"EPHEMERIS_TYPE":0,"CLASSIFICATION_TYPE":"U","NORAD_CAT_ID":8459,"ELEMENT_SET_NO":999,"REV_AT_EPOCH":63096,"BSTAR":0.00010160439,"MEAN_MOTION_DOT":2.83e-6,"MEAN_MOTION_DDOT":0},{"OBJECT_NAME":"SL-3 R/B","OBJECT_ID":"1977-057B","EPOCH":"2026-03-03T21:23:41.559936","MEAN_MOTION":15.45297147,"ECCENTRICITY":0.00063967,"INCLINATION":97.5759,"RA_OF_ASC_NODE":234.5583,"ARG_OF_PERICENTER":309.3757,"MEAN_ANOMALY":50.6925,"EPHEMERIS_TYPE":0,"CLASSIFICATION_TYPE":"U","NORAD_CAT_ID":10114,"ELEMENT_SET_NO":999,"REV_AT_EPOCH":66743,"BSTAR":0.00037182319,"MEAN_MOTION_DOT":0.00017644,"MEAN_MOTION_DDOT":0},{"OBJECT_NAME":"SEASAT 1","OBJECT_ID":"1978-064A","EPOCH":"2026-03-03T19:46:32.239200","MEAN_MOTION":14.46155133,"ECCENTRICITY":0.00021744,"INCLINATION":108.0123,"RA_OF_ASC_NODE":113.1911,"ARG_OF_PERICENTER":287.882,"MEAN_ANOMALY":72.2088,"EPHEMERIS_TYPE":0,"CLASSIFICATION_TYPE":"U","NORAD_CAT_ID":10967,"ELEMENT_SET_NO":999,"REV_AT_EPOCH":50566,"BSTAR":0.00013395905,"MEAN_MOTION_DOT":3.42e-6,"MEAN_MOTION_DDOT":0},{"OBJECT_NAME":"SL-14 R/B","OBJECT_ID":"1979-011B","EPOCH":"2026-03-03T14:40:11.689824","MEAN_MOTION":14.91899894,"ECCENTRICITY":0.0017599,"INCLINATION":82.5215,"RA_OF_ASC_NODE":102.3401,"ARG_OF_PERICENTER":79.1522,"MEAN_ANOMALY":281.1677,"EPHEMERIS_TYPE":0,"CLASSIFICATION_TYPE":"U","NORAD_CAT_ID":11267,"ELEMENT_SET_NO":999,"REV_AT_EPOCH":52787,"BSTAR":7.1785e-5,"MEAN_MOTION_DOT":7.53e-6,"MEAN_MOTION_DDOT":0}]
